INNOSAT 3 (RS92S0)      
1 64894U 25155U   26170.84033082  .00033933  00000+0  74395-3 0  9994
2 64894  97.4489 142.4000 0006891 144.7203 215.4502 15.43987178 81371
KNACKSAT-2              
1 67683U 98067XZ  26170.59247606  .00040473  00000+0  49084-3 0  9990
2 67683  51.6307 282.3774 0008934 225.7617 134.2643 15.60167582 20658
